[
    {
        "Altitude(m)": 607911.0026913501,
        "Argument of Periapsis(deg)": 0.0,
        "Eccentricity": 0.0,
        "Inclination(deg)": 60.0,
        "Latitude(deg)": -14.292908444504008,
        "Longitude(deg)": 173.44262601296472,
        "Mean Anomaly(deg)": 196.36359999999996,
        "RAAN(deg)": 85.00000000000001,
        "Satellite Name": "Test1 386",
        "Satellite Number": 386,
        "Semi-Major Axis(m)": 6980739.136638005,
        "Time(s)": 0
    },
    {
        "Altitude(m)": 608060.236148526,
        "Argument of Periapsis(deg)": 0.00010418945913296404,
        "Eccentricity": 0.0,
        "Inclination(deg)": 60.0,
        "Latitude(deg)": -14.826570278997318,
        "Longitude(deg)": 173.7312345668194,
        "Mean Anomaly(deg)": 196.98370614546184,
        "RAAN(deg)": 84.99957995086027,
        "Satellite Name": "Test1 386",
        "Satellite Number": 386,
        "Semi-Major Axis(m)": 6980739.136638005,
        "Time(s)": 10
    }
]